ONEWEB-0228             
1 48780U 21045P   24131.50623097 -.00000023  00000+0 -95859-4 0  9998
2 48780  87.9048  51.9453 0001841  83.0358 277.0981 13.15550551143398
